{
  "last_updated": "2026-07-20T06:00:02.814815",
  "satellites": {
    "98592": {
      "name": "DUTHSat-2",
      "norad_id": "98592",
      "tle": "1 64530U 25135C   26200.82295573  .00006480  00000-0  24278-3 0  9999\n2 64530  97.4646 316.7409 0006052  85.0149 275.1780 15.27603595 59913",
      "epoch": "2026-07-19T19:45:03.375072",
      "fetched_at": "2026-07-20T06:00:02.963939",
      "source": "satnogs"
    },
    "98530": {
      "name": "LAMARR",
      "norad_id": "98530",
      "tle": "1 66673U 25276H   26026.90917087  .00034524  00000-0  16680-2 0  9998\n2 66673  97.4301 102.8338 0007597 141.5941 218.5835 15.18529012  8972",
      "epoch": "2026-01-26T21:49:12.363168",
      "fetched_at": "2026-01-28T06:00:02.884758",
      "source": "satnogs",
      "note": "Using previous TLE (fetch/manual failed today)"
    },
    "98529": {
      "name": "DIRAC",
      "norad_id": "98529",
      "tle": "1 66681U 25276R   26026.63281774  .00024563  00000-0  11745-2 0  9993\n2 66681  97.4280 102.5712 0006320 148.4115 211.7500 15.18972786  8932",
      "epoch": "2026-01-26T15:11:15.452736",
      "fetched_at": "2026-01-28T06:00:02.937152",
      "source": "satnogs",
      "note": "Using previous TLE (fetch/manual failed today)"
    },
    "98518": {
      "name": "MICE-1",
      "norad_id": "98518",
      "tle": "1 66684U 25276U   26200.71499278  .00001816  00000-0  89004-4 0  9990\n2 66684  97.4261 273.8036 0004178 225.6418 134.4474 15.19389705 35359",
      "epoch": "2026-07-19T17:09:35.376192",
      "fetched_at": "2026-07-20T06:00:03.142963",
      "source": "satnogs"
    },
    "68416": {
      "name": "PeakSat",
      "norad_id": "68416",
      "tle": "1 68416U 26067A   26200.81694175  .00003189  00000-0  15196-3 0  9993\n2 68416  97.4565 159.0000 0003486 124.0616 236.0950 15.19838316 16905",
      "epoch": "2026-07-19T19:36:23.767200",
      "fetched_at": "2026-07-20T06:00:03.204459",
      "source": "satnogs"
    },
    "98370": {
      "name": "OptiSat",
      "norad_id": "98370",
      "tle": "1 69696U 69696    26089.46895426  .00000000  00000-0  00000-0 0 00004\n2 69696 097.4414 038.3720 0003145 156.7651 191.1423 15.18459822000011",
      "epoch": "2026-03-30T11:15:17.648064",
      "fetched_at": "2026-04-17T12:47:18.541523",
      "source": "manual"
    },
    "68468": {
      "name": "ERMIS-1",
      "norad_id": "68468",
      "tle": "1 68468U 26067BE  26200.82095815  .00004560  00000-0  22643-3 0  9996\n2 68468  97.4565 158.7024 0005028 320.2660  39.8206 15.18171390 16888",
      "epoch": "2026-07-19T19:42:10.784160",
      "fetched_at": "2026-07-20T06:00:03.258160",
      "source": "satnogs"
    },
    "68420": {
      "name": "ERMIS-2",
      "norad_id": "68420",
      "tle": "1 68420U 26067E   26200.80581265  .00004987  00000-0  23283-3 0  9995\n2 68420  97.4491 158.9211 0003430 103.1863 256.9755 15.20279635 16900",
      "epoch": "2026-07-19T19:20:22.212960",
      "fetched_at": "2026-07-20T06:00:03.314406",
      "source": "satnogs"
    },
    "98367": {
      "name": "ERMIS-3",
      "norad_id": "98367",
      "tle": "1 68425U 26067K   26200.40054277  .00002852  00000-0  13913-3 0  9992\n2 68425  97.4607 158.5467 0001633 137.6793 222.4567 15.19112322 16838",
      "epoch": "2026-07-19T09:36:46.895328",
      "fetched_at": "2026-07-20T06:00:03.368309",
      "source": "satnogs"
    },
    "69021": {
      "name": "Helios",
      "norad_id": "69021",
      "tle": "1 69021U 26100AT  26200.68931743  .00003219  00000-0  15088-3 0  9998\n2 69021  97.3980  97.8535 0003216 213.0544 147.0491 15.20392211 11749",
      "epoch": "2026-07-19T16:32:37.025952",
      "fetched_at": "2026-07-20T06:00:03.422546",
      "source": "satnogs"
    },
    "69020": {
      "name": "Selene",
      "norad_id": "69020",
      "tle": "1 69020U 26100AS  26200.69633667  .00002601  00000-0  12327-3 0  9999\n2 69020  97.3997  97.8629 0002879 201.5170 158.5944 15.20184759 11747",
      "epoch": "2026-07-19T16:42:43.488288",
      "fetched_at": "2026-07-20T06:00:03.478740",
      "source": "satnogs"
    }
  },
  "fetch_log": []
}